{"type": "FeatureCollection", "features": [ {"type": "Feature", "properties": {"norad_id": 34529, "name": "IRIDIUM 33 DEB", "group": "iridium-33-debris", "lat": 5.7949815101005635, "lon": -148.4197810125374, "alt_km": 754.9439297399858, "timestamp": "2025-12-20T20:38:44.826766+00:00", "meta": {"OBJECT_NAME": "IRIDIUM 33 DEB", "OBJECT_ID": "1997-051HW", "EPOCH": "2025-12-20T03:10:13.579104", "MEAN_MOTION": 14.40621204, "ECCENTRICITY": 0.00056835, "INCLINATION": 86.3633, "RA_OF_ASC_NODE": 32.2604, "ARG_OF_PERICENTER": 154.9999, "MEAN_ANOMALY": 205.1477, "EPHEMERIS_TYPE": 0, "CLASSIFICATION_TYPE": "U", "NORAD_CAT_ID": 34529, "ELEMENT_SET_NO": 999, "REV_AT_EPOCH": 88248, "BSTAR": 8.3294871e-05, "MEAN_MOTION_DOT": 2.86e-06, "MEAN_MOTION_DDOT": 0}, "tle": {"line1": "1 34529U 97051HW  25354.13210161  .00000286  00000+0  83295-4 0  9995", "line2": "2 34529  86.3633  32.2604 0005683 154.9999 205.1477 14.40621204882489"}}, "geometry": {"type": "Point", "coordinates": [-148.4197810125374, 5.7949815101005635]}}, {"type": "Feature", "properties": {"norad_id": 34538, "name": "IRIDIUM 33 DEB", "group": "iridium-33-debris", "lat": 70.97979152068822, "lon": 12.889711406527127, "alt_km": 757.9495816600811, "timestamp": "2025-12-20T20:38:44.826777+00:00", "meta": {"OBJECT_NAME": "IRIDIUM 33 DEB", "OBJECT_ID": "1997-051JF", "EPOCH": "2025-12-20T05:54:09.537408", "MEAN_MOTION": 14.42688568, "ECCENTRICITY": 0.00321834, "INCLINATION": 86.2759, "RA_OF_ASC_NODE": 2.2678, "ARG_OF_PERICENTER": 302.109, "MEAN_ANOMALY": 180.5468, "EPHEMERIS_TYPE": 0, "CLASSIFICATION_TYPE": "U", "NORAD_CAT_ID": 34538, "ELEMENT_SET_NO": 999, "REV_AT_EPOCH": 87864, "BSTAR": 0.00064183465, "MEAN_MOTION_DOT": 2.166e-05, "MEAN_MOTION_DDOT": 0}, "tle": {"line1": "1 34538U 97051JF  25354.24594372  .00002166  00000+0  64183-3 0  9999", "line2": "2 34538  86.2759   2.2678 0032183 302.1090 180.5468 14.42688568878646"}}, "geometry": {"type": "Point", "coordinates": [12.889711406527127, 70.97979152068822]}}, {"type": "Feature", "properties": {"norad_id": 34540, "name": "IRIDIUM 33 DEB", "group": "iridium-33-debris", "lat": 4.416056429537646, "lon": -55.821460505303634, "alt_km": 653.6139054373434, "timestamp": "2025-12-20T20:38:44.826787+00:00", "meta": {"OBJECT_NAME": "IRIDIUM 33 DEB", "OBJECT_ID": "1997-051JH", "EPOCH": "2025-12-20T14:54:55.202400", "MEAN_MOTION": 14.75466794, "ECCENTRICITY": 0.00176341, "INCLINATION": 86.3108, "RA_OF_ASC_NODE": 304.0022, "ARG_OF_PERICENTER": 132.3825, "MEAN_ANOMALY": 44.8914, "EPHEMERIS_TYPE": 0, "CLASSIFICATION_TYPE": "U", "NORAD_CAT_ID": 34540, "ELEMENT_SET_NO": 999, "REV_AT_EPOCH": 89137, "BSTAR": 0.00096687591, "MEAN_MOTION_DOT": 6.614e-05, "MEAN_MOTION_DDOT": 0}, "tle": {"line1": "1 34540U 97051JH  25354.62147225  .00006614  00000+0  96688-3 0  9992", "line2": "2 34540  86.3108 304.0022 0017634 132.3825  44.8914 14.75466794891371"}}, "geometry": {"type": "Point", "coordinates": [-55.821460505303634, 4.416056429537646]}}, {"type": "Feature", "properties": {"norad_id": 34648, "name": "IRIDIUM 33 DEB", "group": "iridium-33-debris", "lat": 86.37491683729363, "lon": 3.6947668856524487, "alt_km": 976.2258841268085, "timestamp": "2025-12-20T20:38:44.826797+00:00", "meta": {"OBJECT_NAME": "IRIDIUM 33 DEB", "OBJECT_ID": "1997-051JZ", "EPOCH": "2025-12-20T01:30:04.009824", "MEAN_MOTION": 14.11697564, "ECCENTRICITY": 0.01804111, "INCLINATION": 86.3908, "RA_OF_ASC_NODE": 278.9892, "ARG_OF_PERICENTER": 275.9673, "MEAN_ANOMALY": 82.0975, "EPHEMERIS_TYPE": 0, "CLASSIFICATION_TYPE": "U", "NORAD_CAT_ID": 34648, "ELEMENT_SET_NO": 999, "REV_AT_EPOCH": 85064, "BSTAR": 0.0043645055, "MEAN_MOTION_DOT": 9.277e-05, "MEAN_MOTION_DDOT": 0}, "tle": {"line1": "1 34648U 97051JZ  25354.06254641  .00009277  00000+0  43645-2 0  9992", "line2": "2 34648  86.3908 278.9892 0180411 275.9673  82.0975 14.11697564850648"}}, "geometry": {"type": "Point", "coordinates": [3.6947668856524487, 86.37491683729363]}}, {"type": "Feature", "properties": {"norad_id": 34651, "name": "IRIDIUM 33 DEB", "group": "iridium-33-debris", "lat": -24.39398167585024, "lon": -41.187724931248496, "alt_km": 718.9092020159578, "timestamp": "2025-12-20T20:38:44.826807+00:00", "meta": {"OBJECT_NAME": "IRIDIUM 33 DEB", "OBJECT_ID": "1997-051KC", "EPOCH": "2025-12-19T16:44:48.420096", "MEAN_MOTION": 14.25922062, "ECCENTRICITY": 0.01422464, "INCLINATION": 86.2827, "RA_OF_ASC_NODE": 137.6175, "ARG_OF_PERICENTER": 181.9677, "MEAN_ANOMALY": 178.0974, "EPHEMERIS_TYPE": 0, "CLASSIFICATION_TYPE": "U", "NORAD_CAT_ID": 34651, "ELEMENT_SET_NO": 999, "REV_AT_EPOCH": 85995, "BSTAR": 0.0022061693, "MEAN_MOTION_DOT": 5.865e-05, "MEAN_MOTION_DDOT": 0}, "tle": {"line1": "1 34651U 97051KC  25353.69778264  .00005865  00000+0  22062-2 0  9995", "line2": "2 34651  86.2827 137.6175 0142246 181.9677 178.0974 14.25922062859957"}}, "geometry": {"type": "Point", "coordinates": [-41.187724931248496, -24.39398167585024]}}, {"type": "Feature", "properties": {"norad_id": 34652, "name": "IRIDIUM 33 DEB", "group": "iridium-33-debris", "lat": -51.53827550275114, "lon": 161.0186773708258, "alt_km": 678.9740811469283, "timestamp": "2025-12-20T20:38:44.826817+00:00", "meta": {"OBJECT_NAME": "IRIDIUM 33 DEB", "OBJECT_ID": "1997-051KD", "EPOCH": "2025-12-19T17:51:26.256096", "MEAN_MOTION": 14.62117993, "ECCENTRICITY": 0.00255284, "INCLINATION": 86.331, "RA_OF_ASC_NODE": 336.8822, "ARG_OF_PERICENTER": 272.5866, "MEAN_ANOMALY": 207.7977, "EPHEMERIS_TYPE": 0, "CLASSIFICATION_TYPE": "U", "NORAD_CAT_ID": 34652, "ELEMENT_SET_NO": 999, "REV_AT_EPOCH": 88586, "BSTAR": 0.00063186757, "MEAN_MOTION_DOT": 3.211e-05, "MEAN_MOTION_DDOT": 0}, "tle": {"line1": "1 34652U 97051KD  25353.74405389  .00003211  00000+0  63187-3 0  9994", "line2": "2 34652  86.3310 336.8822 0025528 272.5866 207.7977 14.62117993885860"}}, "geometry": {"type": "Point", "coordinates": [161.0186773708258, -51.53827550275114]}}, {"type": "Feature", "properties": {"norad_id": 34690, "name": "IRIDIUM 33 DEB", "group": "iridium-33-debris", "lat": -70.33400732834936, "lon": -136.3275612036412, "alt_km": 718.9914030510809, "timestamp": "2025-12-20T20:38:44.826828+00:00", "meta": {"OBJECT_NAME": "IRIDIUM 33 DEB", "OBJECT_ID": "1997-051KM", "EPOCH": "2025-12-20T09:52:33.180096", "MEAN_MOTION": 14.55121329, "ECCENTRICITY": 0.0009919, "INCLINATION": 86.3775, "RA_OF_ASC_NODE": 33.6571, "ARG_OF_PERICENTER": 4.2918, "MEAN_ANOMALY": 57.2138, "EPHEMERIS_TYPE": 0, "CLASSIFICATION_TYPE": "U", "NORAD_CAT_ID": 34690, "ELEMENT_SET_NO": 999, "REV_AT_EPOCH": 88206, "BSTAR": 0.00029381074, "MEAN_MOTION_DOT": 1.29e-05, "MEAN_MOTION_DDOT": 0}, "tle": {"line1": "1 34690U 97051KM  25354.41149514  .00001290  00000+0  29381-3 0  9999", "line2": "2 34690  86.3775  33.6571 0009919   4.2918  57.2138 14.55121329882060"}}, "geometry": {"type": "Point", "coordinates": [-136.3275612036412, -70.33400732834936]}}, {"type": "Feature", "properties": {"norad_id": 34693, "name": "IRIDIUM 33 DEB", "group": "iridium-33-debris", "lat": -66.84267193829557, "lon": -68.91301002446764, "alt_km": 485.95083795030405, "timestamp": "2025-12-20T20:38:44.826838+00:00", "meta": {"OBJECT_NAME": "IRIDIUM 33 DEB", "OBJECT_ID": "1997-051KQ", "EPOCH": "2025-12-20T07:28:21.213696", "MEAN_MOTION": 15.29654599, "ECCENTRICITY": 0.00122944, "INCLINATION": 86.3023, "RA_OF_ASC_NODE": 300.0572, "ARG_OF_PERICENTER": 39.2143, "MEAN_ANOMALY": 113.2582, "EPHEMERIS_TYPE": 0, "CLASSIFICATION_TYPE": "U", "NORAD_CAT_ID": 34693, "ELEMENT_SET_NO": 999, "REV_AT_EPOCH": 89030, "BSTAR": 0.0032074262, "MEAN_MOTION_DOT": 0.00093319, "MEAN_MOTION_DDOT": 0}, "tle": {"line1": "1 34693U 97051KQ  25354.31135664  .00093319  00000+0  32074-2 0  9997", "line2": "2 34693  86.3023 300.0572 0012294  39.2143 113.2582 15.29654599890303"}}, "geometry": {"type": "Point", "coordinates": [-68.91301002446764, -66.84267193829557]}}, {"type": "Feature", "properties": {"norad_id": 34696, "name": "IRIDIUM 33 DEB", "group": "iridium-33-debris", "lat": -33.37888069236725, "lon": 21.221552358084626, "alt_km": 733.6807854318749, "timestamp": "2025-12-20T20:38:44.826848+00:00", "meta": {"OBJECT_NAME": "IRIDIUM 33 DEB", "OBJECT_ID": "1997-051KT", "EPOCH": "2025-12-20T03:03:36.896832", "MEAN_MOTION": 14.65425134, "ECCENTRICITY": 0.0073881, "INCLINATION": 86.1833, "RA_OF_ASC_NODE": 24.0835, "ARG_OF_PERICENTER": 142.6074, "MEAN_ANOMALY": 281.0712, "EPHEMERIS_TYPE": 0, "CLASSIFICATION_TYPE": "U", "NORAD_CAT_ID": 34696, "ELEMENT_SET_NO": 999, "REV_AT_EPOCH": 86781, "BSTAR": 0.0025217059, "MEAN_MOTION_DOT": 0.00014237, "MEAN_MOTION_DDOT": 0}, "tle": {"line1": "1 34696U 97051KT  25354.12751038  .00014237  00000+0  25217-2 0  9991", "line2": "2 34696  86.1833  24.0835 0073881 142.6074 281.0712 14.65425134867818"}}, "geometry": {"type": "Point", "coordinates": [21.221552358084626, -33.37888069236725]}}, {"type": "Feature", "properties": {"norad_id": 34765, "name": "IRIDIUM 33 DEB", "group": "iridium-33-debris", "lat": -32.35778027221801, "lon": -148.39764228090186, "alt_km": 752.9846221799207, "timestamp": "2025-12-20T20:38:44.826858+00:00", "meta": {"OBJECT_NAME": "IRIDIUM 33 DEB", "OBJECT_ID": "1997-051LJ", "EPOCH": "2025-12-18T13:21:25.941600", "MEAN_MOTION": 14.40479279, "ECCENTRICITY": 0.00160914, "INCLINATION": 86.3386, "RA_OF_ASC_NODE": 30.2656, "ARG_OF_PERICENTER": 191.4295, "MEAN_ANOMALY": 322.071, "EPHEMERIS_TYPE": 0, "CLASSIFICATION_TYPE": "U", "NORAD_CAT_ID": 34765, "ELEMENT_SET_NO": 999, "REV_AT_EPOCH": 87697, "BSTAR": 0.00029987235, "MEAN_MOTION_DOT": 9.74e-06, "MEAN_MOTION_DDOT": 0}, "tle": {"line1": "1 34765U 97051LJ  25352.55655025  .00000974  00000+0  29987-3 0  9994", "line2": "2 34765  86.3386  30.2656 0016091 191.4295 322.0710 14.40479279876970"}}, "geometry": {"type": "Point", "coordinates": [-148.39764228090186, -32.35778027221801]}}]}